STARLINK-31024          
1 58786U 24011X   26068.26762167 -.00000139  00000+0  74227-5 0  9991
2 58786  53.1619  13.6627 0001160  88.5246 271.5888 15.30191356120238
NUSAT-48 (HENRIETTA LE*)
1 60498U 24149AG  26068.80506098  .00012988  00000+0  45212-3 0  9999
2 60498  97.3923 150.8264 0002754 263.3026  96.7901 15.29812597 86946
